0 ATLAS 2 CENTAUR R/B
1 23697U 95057B   13282.94782425  .00015608  00000-0  14940-2 0  7639
2 23697 026.8286 075.1482 5716220 232.3120 102.8942 04.50917749246749
0 ATLAS 2 CENTAUR R/B
1 23697U 95057B   13283.37875950  .00015657  00000-0  14994-2 0  7647
2 23697 026.8288 074.7686 5716114 232.9447 082.4094 04.50933269246760
0 ATLAS 2 CENTAUR R/B
1 23697U 95057B   13283.58645994  .00018863  00000-0  17045-2 0  7634
2 23697 026.8184 074.5575 5717884 233.2563 059.6412 04.50914636246765
0 ATLAS 2 CENTAUR R/B
1 23697U 95057B   13283.79182794  .00015743  00000-0  15052-2 0  7653
2 23697 026.8290 074.4046 5716075 233.5493 032.9498 04.50947256246785
0 ATLAS 2 CENTAUR R/B
1 23697U 95057B   13283.98224993  .00016127  00000-0  15410-2 0  7668
2 23697 026.8290 074.2369 5716082 233.8318 342.0753 04.50948006246792
0 ATLAS 2 CENTAUR R/B
1 23697U 95057B   13285.34710277  .00014499  00000-0  13805-2 0  7683
2 23697 026.8291 073.0347 5715832 235.8434 037.8018 04.50995173246856
0 ATLAS 2 CENTAUR R/B
1 23697U 95057B   13285.97778419  .00014974  00000-0  14233-2 0  7699
2 23697 026.8293 072.4793 5715718 236.7652 341.7634 04.51011794246884
0 ATLAS 2 CENTAUR R/B
1 23697U 95057B   13286.49564484  .00014865  00000-0  14120-2 0  7708
2 23697 026.8295 072.0236 5715607 237.5248 102.5785 04.51024138246900
0 ATLAS 2 CENTAUR R/B
1 23697U 95057B   13287.36562619  .00015518  00000-0  14682-2 0  7713
2 23697 026.8295 071.2569 5715467 238.8092 075.1550 04.51052825246948
0 ATLAS 2 CENTAUR R/B
1 23697U 95057B   13287.97294752  .00016897  00000-0  15937-2 0  7726
2 23697 026.8298 070.7220 5715352 239.7106 341.2935 04.51079716246973
0 ATLAS 2 CENTAUR R/B
1 23697U 95057B   13289.33598145  .00014875  00000-0  13984-2 0  7736
2 23697 026.8302 069.5212 5715074 241.7127 034.7381 04.51124672247032
0 ATLAS 2 CENTAUR R/B
1 23697U 95057B   13291.13731440  .00014492  00000-0  13636-2 0  7744
2 23697 026.8311 067.9341 5714767 244.3614 080.2755 04.51170657247119
0 ATLAS 2 CENTAUR R/B
1 23697U 95057B   13292.84922847  .00015706  00000-0  14791-2 0  7759
2 23697 026.8313 066.4245 5714609 246.8777 340.9209 04.51211758247196
0 ATLAS 2 CENTAUR R/B
1 23697U 95057B   13294.84398571  .00015129  00000-0  14276-2 0  7760
2 23697 026.8320 064.6661 5714292 249.8245 341.3093 04.51278693247284
0 ATLAS 2 CENTAUR R/B
1 23697U 95057B   13296.20649838  .00013564  00000-0  12806-2 0  7776
2 23697 026.8322 063.4649 5714046 251.8488 034.8490 04.51332441247342
